ESTCUBE 1               
1 39161U 13021C   22236.89565621  .00000659  00000+0  11006-3 0  9994
2 39161  97.9057 312.3487 0008863 194.3506 165.7415 14.73056292499549
FENGYUN 3C              
1 39260U 13052A   22236.74444726  .00000036  00000+0  38931-4 0  9990
2 39260  98.4515 261.3918 0012334  79.0803 281.1757 14.15938018461589
CASSIOPE                
1 39265U 13055A   22236.85488708  .00005915  00000+0  15454-3 0  9993
2 39265  80.9646 194.7467 0619501 115.2577 251.4126 14.39662795462171
ZACUBE-1 (TSHEPISOSAT)  
1 39417U 13066B   22236.60737026  .00000608  00000+0  79987-4 0  9993
2 39417  97.6421 205.0562 0057485 179.5304 180.5975 14.82526753473229
CINEMA-3 (KHUSAT-2)     
1 39426U 13066L   22236.54598909  .00000578  00000+0  96292-4 0  9995
2 39426  97.8002 173.5269 0103657  18.5551 341.9392 14.70261184469275
TRITON-1                
1 39427U 13066M   22237.12933236  .00000848  00000+0  13898-3 0  9997
2 39427  97.8135 169.9451 0112840  45.7198 315.3198 14.69102516469054
DELFI-N3XT              
1 39428U 13066N   22236.56019941  .00001350  00000+0  21283-3 0  9999
2 39428  97.8141 167.9999 0118491  60.4075 300.8877 14.69393728468535
GOMX-1                  
1 39430U 13066Q   22237.11356148  .00000567  00000+0  10948-3 0  9992
2 39430  97.8035 140.3804 0148565 187.8560 172.0313 14.60314816466318
BRITE-PL1 (LEM)         
1 39431U 13066R   22236.46667945  .00000152  00000+0  42179-4 0  9992
2 39431  97.6949  84.1141 0201960  18.3582 342.4766 14.47396269462207
ICUBE-1                 
1 39432U 13066S   22236.98244417  .00001057  00000+0  10788-3 0  9990
2 39432  97.4704 237.2149 0031905  38.0319 322.3144 14.92241811476137
HUMSAT-D                
1 39433U 13066T   22236.77455279  .00002122  00000+0  19874-3 0  9997
2 39433  97.4508 244.6865 0029401  13.5350 346.6653 14.94737843475420
VELOX-PII               
1 39438U 13066Y   22237.17024289  .00000459  00000+0  66773-4 0  9992
2 39438  97.6977 196.8968 0067887 232.0785 127.4278 14.79053379472297
FIRST-MOVE              
1 39439U 13066Z   22237.16334990  .00001244  00000+0  14866-3 0  9993
2 39439  97.6426 208.1469 0062458 172.4304 187.7869 14.84571378473334
CUBEBUG-2 (LO-74)       
1 39440U 13066AA  22236.46779789  .00000644  00000+0  93921-4 0  9999
2 39440  97.7307 191.1893 0076832 270.9689  88.2719 14.77195222470325
NEE-02 KRYSAOR          
1 39441U 13066AB  22236.66511944  .00000459  00000+0  71054-4 0  9996
2 39441  97.7417 188.5241 0078863 284.6084  74.6391 14.75878287470098
FUNCUBE-1 (AO-73)       
1 39444U 13066AE  22237.18055667  .00000771  00000+0  97078-4 0  9993
2 39444  97.6301 208.0197 0056716 165.4160 194.8708 14.83643799472304
HINCUBE                 
1 39445U 13066AF  22236.90395603  .00000783  00000+0  98998-4 0  9995
2 39445  97.6316 207.5688 0056691 168.5776 191.6740 14.83446958471611
UWE-3                   
1 39446U 13066AG  22236.84537593  .00000546  00000+0  76829-4 0  9991
2 39446  97.6909 197.9808 0067200 225.4230 134.1486 14.79751854470574
AIST-1 (RS-41)          
1 39492U 13078C   22236.75307219  .00000755  00000+0  78405-4 0  9999
2 39492  82.4203 171.2689 0018010 238.4280 121.5172 14.88547495469945
SPROUT                  
1 39770U 14029E   22237.22642689  .00005152  00000+0  51904-3 0  9991
2 39770  97.9485 354.6430 0008105 211.3484 148.7169 14.91579476447916
UNISAT-6                
1 40012U 14033C   22236.83352843  .00000483  00000+0  77339-4 0  9996
2 40012  97.6631  61.1522 0056036 298.3473  61.2092 14.75037679440067
BUGSAT-1 (TITA)         
1 40014U 14033E   22236.98973439  .00000421  00000+0  42025-4 0  9990
2 40014  98.1458 238.2057 0030735 168.1259 192.0692 14.96921147446392
DUCHIFAT-1              
1 40021U 14033M   22236.56470879  .00001531  00000+0  15205-3 0  9994
2 40021  98.0164 188.0333 0012516 168.3439 191.8072 14.93213392444863
NANOSATC-BR1            
1 40024U 14033Q   22237.09306305  .00000971  00000+0  10154-3 0  9993
2 40024  97.9883 181.5747 0011819 173.2211 186.9170 14.92006786444733
QB50P1                  
1 40025U 14033R   22236.59271999  .00000981  00000+0  10573-3 0  9994
2 40025  97.9615 174.5400 0011792 185.5025 174.6065 14.90734910443915
DTUSAT-2                
1 40030U 14033W   22236.53702599  .00000786  00000+0  86997-4 0  9996
2 40030  97.9376 169.5902 0011363 181.9930 178.1244 14.90170896443785
QB50P2                  
1 40032U 14033Y   22236.57768693  .00000914  00000+0  10032-3 0  9998
2 40032  97.9378 169.6456 0011289 183.0101 177.1050 14.90143953443760
POLYITAN-1              
1 40042U 14033AJ  22236.53782620  .00001126  00000+0  12022-3 0  9998
2 40042  97.9722 175.7699 0014076 178.5564 181.5697 14.90802840443796
TIGRISAT                
1 40043U 14033AK  22236.46970523  .00000384  00000+0  62855-4 0  9997
2 40043  97.6571  62.0658 0057814 296.8340  62.6965 14.75113933439650
AISAT                   
1 40054U 14034B   22237.06966346  .00001147  00000+0  15926-3 0  9999
2 40054  98.3643  51.2599 0013512  94.9771 265.2982 14.79943691439629
CANX-4                  
1 40055U 14034C   22237.17136692  .00000310  00000+0  53602-4 0  9990
2 40055  98.3643  36.3962 0014952 135.9312 224.3090 14.75517122438889
CANX-5                  
1 40056U 14034D   22236.43213981  .00000335  00000+0  57190-4 0  9999
2 40056  98.3640  35.6118 0014917 138.2515 221.9834 14.75511801429555
VELOX-I                 
1 40057U 14034E   22237.17073393  .00001440  00000+0  20075-3 0  9992
2 40057  98.3697  52.4829 0011720 108.3024 251.9434 14.79351710439630
METEOR-M 2              
1 40069U 14037A   22237.27148992  .00000004  00000+0  21219-4 0  9994
2 40069  98.4313 251.9350 0006718 116.6994 243.4875 14.20716314421630
DX1                     
1 40071U 14037C   22237.20822816  .00000506  00000+0  71256-4 0  9997
2 40071  98.4001 109.3356 0009626  95.1193 265.1111 14.81950941439526
UKUBE-1                 
1 40074U 14037F   22237.12408619  .00001286  00000+0  15557-3 0  9999
2 40074  98.3739 121.3608 0005598  71.3356 288.8438 14.85596430440261
FIREBIRD 3              
1 40377U 15003B   22237.13829725  .00007186  00000+0  20740-3 0  9990
2 40377  99.0903 117.4411 0097465 151.4920 209.1696 15.31449837418938
FIREBIRD 4              
1 40378U 15003C   22237.09405584  .00007770  00000+0  22326-3 0  9990
2 40378  99.0909 117.6131 0097362 151.2597 209.4054 15.31551029418938
GRIFEX                  
1 40379U 15003D   22237.14055060  .00004190  00000+0  14743-3 0  9994
2 40379  99.1036 102.8118 0112794 196.0782 163.6860 15.24254569418096
CP10 (EXOCUBE)          
1 40380U 15003E   22236.80837910  .00003325  00000+0  12894-3 0  9994
2 40380  99.1140  94.8886 0120944 222.6063 136.5738 15.20589693417547
DEORBITSAIL             
1 40719U 15032E   22236.45966757  .00000968  00000+0  13875-3 0  9995
2 40719  97.7733 112.5139 0016629 139.0826 221.1637 14.78630921383933
NUDT-PHONESAT           
1 40900U 15049B   22236.86449251  .00019605  00000+0  50955-3 0  9993
2 40900  97.3989 255.3392 0009801  53.8584  70.8807 15.38931451385129
XW-2A                   
1 40903U 15049E   22237.12577426  .00014980  00000+0  21636-3 0  9997
2 40903  97.1738 295.8573 0008322 213.7034 176.7211 15.56007492389933
XW-2C                   
1 40906U 15049H   22237.01947325  .00003413  00000+0  16297-3 0  9993
2 40906  97.4952 239.9151 0015357 116.7620 306.6615 15.19635975383339
XW-2D                   
1 40907U 15049J   22237.07865234  .00003996  00000+0  18628-3 0  9994
2 40907  97.4936 240.0174 0014780 112.6399 318.2190 15.20370396383395
LILACSAT-2              
1 40908U 15049K   22236.93921414  .00002025  00000+0  10829-3 0  9999
2 40908  97.5193 236.8654 0016459 134.9010 312.4139 15.16109537382862
XW-2E                   
1 40909U 15049L   22236.94464053  .00006276  00000+0  25729-3 0  9999
2 40909  97.4658 244.5712 0013889  94.7373 327.7908 15.24537226383849
XW-2F                   
1 40910U 15049M   22237.09493684  .00006125  00000+0  25508-3 0  9998
2 40910  97.4736 243.8722 0014793  96.0876 335.6241 15.24001637383636
XW-2B                   
1 40911U 15049N   22237.04438130  .00004022  00000+0  18810-3 0  9991
2 40911  97.4923 240.5618 0014751 114.8043 322.7954 15.20251220383271
KAITUO 1B               
1 40912U 15049P   22236.89082214  .00007573  00000+0  28548-3 0  9995
2 40912  97.4372 248.0169 0014186  66.6410   4.7047 15.27262136384195
TIANWANG 1A (TW-1A)     
1 40928U 15051D   22237.14265528  .00033840  00000+0  34387-3 0  9999
2 40928  97.0354 259.4295 0009297 122.1690 308.9964 15.65064379388966
LAPAN-A2                
1 40931U 15052B   22236.86161820  .00000942  00000+0  41752-4 0  9994
2 40931   5.9994  41.0489 0013203  55.7405 304.3983 14.76848470373479
LQSAT                   
1 40958U 15057A   22237.13062498  .00000273  00000+0  49336-4 0  9993
2 40958  97.7452 280.2524 0019438  98.4304 261.9125 14.73412735370090
ATHENOXAT 1             
1 41168U 15077C   22236.39330706  .00010262  00000+0  39805-3 0  9994
2 41168  14.9856 306.2935 0009228 115.4258 327.9508 15.22379719370673
GALASSIA                
1 41170U 15077E   22236.53361279  .00005125  00000+0  18867-3 0  9999
2 41170  14.9885 296.6807 0010673 145.9579 214.1428 15.21420519370603
VELOX-II                
1 41171U 15077F   22236.73835935  .00004051  00000+0  16620-3 0  9999
2 41171  14.9923  12.0687 0007686 341.9791  18.0258 15.16555983369997
CHUBUSAT-2              
1 41338U 16012B   22236.54031288  .00000922  00000+0  62843-4 0  9994
2 41338  31.0033 310.3046 0013280 108.4411 251.7670 15.01568567357727
CHUBUSAT-3              
1 41339U 16012C   22236.59642374  .00001304  00000+0  91428-4 0  9990
2 41339  31.0124 306.8687 0013094 117.3752 242.8218 15.01634446357730
HORYU-4                 
1 41340U 16012D   22236.48826486  .00001336  00000+0  88849-4 0  9996
2 41340  31.0042 284.5204 0013240 157.8085 202.3127 15.03640090357979
